$$SOE
2460161.500000000, A.D. 2023-Aug-05 00:00:00.0000, 1.626653398775542E+09, 6.687060910709459E+09, 4.967711174298048E+07,
2460168.500000000, A.D. 2023-Aug-12 00:00:00.0000, 1.624096747240799E+09, 6.687692417021533E+09, 5.004879378212261E+07,
2460175.500000000, A.D. 2023-Aug-19 00:00:00.0000, 1.621539765115303E+09, 6.688322895941145E+09, 5.042047092692852E+07,
2460182.500000000, A.D. 2023-Aug-26 00:00:00.0000, 1.618982451093144E+09, 6.688952344524939E+09, 5.079214321727467E+07,
2460189.500000000, A.D. 2023-Sep-02 00:00:00.0000, 1.616424804151758E+09, 6.689580759449738E+09, 5.116381067033720E+07,
2460196.500000000, A.D. 2023-Sep-09 00:00:00.0000, 1.613866823543297E+09, 6.690208136918694E+09, 5.153547327065659E+07,
2460203.500000000, A.D. 2023-Sep-16 00:00:00.0000, 1.611308508968046E+09, 6.690834472396906E+09, 5.190713092869616E+07,
2460210.500000000, A.D. 2023-Sep-23 00:00:00.0000, 1.608749861346309E+09, 6.691459760463255E+09, 5.227878339323711E+07,
2460217.500000000, A.D. 2023-Sep-30 00:00:00.0000, 1.606190883849189E+09, 6.692083995969247E+09, 5.265043024613094E+07,
2460224.500000000, A.D. 2023-Oct-07 00:00:00.0000, 1.603631580834513E+09, 6.692707175961960E+09, 5.302207115108585E+07,
2460231.500000000, A.D. 2023-Oct-14 00:00:00.0000, 1.601071955727821E+09, 6.693329299057980E+09, 5.339370599051094E+07,
2460238.500000000, A.D. 2023-Oct-21 00:00:00.0000, 1.598512011077008E+09, 6.693950363871012E+09, 5.376533472544909E+07,
2460245.500000000, A.D. 2023-Oct-28 00:00:00.0000, 1.595951749356262E+09, 6.694570368753331E+09, 5.413695729416323E+07,
2460252.500000000, A.D. 2023-Nov-04 00:00:00.0000, 1.593391173269279E+09, 6.695189312080632E+09, 5.450857360135221E+07,
2460259.500000000, A.D. 2023-Nov-11 00:00:00.0000, 1.590830285729309E+09, 6.695807192480436E+09, 5.488018353292274E+07,
2460266.500000000, A.D. 2023-Nov-18 00:00:00.0000, 1.588269089735533E+09, 6.696424008939735E+09, 5.525178697119856E+07,
2460273.500000000, A.D. 2023-Nov-25 00:00:00.0000, 1.585707588218605E+09, 6.697039760814428E+09, 5.562338380596066E+07,
2460280.500000000, A.D. 2023-Dec-02 00:00:00.0000, 1.583145783883533E+09, 6.697654447729373E+09, 5.599497393796968E+07,
2460287.500000000, A.D. 2023-Dec-09 00:00:00.0000, 1.580583679127738E+09, 6.698268069310110E+09, 5.636655726317024E+07,
2460294.500000000, A.D. 2023-Dec-16 00:00:00.0000, 1.578021276321823E+09, 6.698880624758866E+09, 5.673813361222601E+07,
2460301.500000000, A.D. 2023-Dec-23 00:00:00.0000, 1.575458578801517E+09, 6.699492112962227E+09, 5.710970266959953E+07,
2460308.500000000, A.D. 2023-Dec-30 00:00:00.0000, 1.572895591230569E+09, 6.700102534179806E+09, 5.748126408070850E+07,
2460315.500000000, A.D. 2024-Jan-06 00:00:00.0000, 1.570332317562138E+09, 6.700711890953112E+09, 5.785281771665812E+07,
2460322.500000000, A.D. 2024-Jan-13 00:00:00.0000, 1.567768759771427E+09, 6.701320186427782E+09, 5.822436365762901E+07,
2460329.500000000, A.D. 2024-Jan-20 00:00:00.0000, 1.565204918583115E+09, 6.701927423173715E+09, 5.859590203454971E+07,
2460336.500000000, A.D. 2024-Jan-27 00:00:00.0000, 1.562640794164856E+09, 6.702533603155312E+09, 5.896743296814632E+07,
2460343.500000000, A.D. 2024-Feb-03 00:00:00.0000, 1.560076386358464E+09, 6.703138727903225E+09, 5.933895656693506E+07,
2460350.500000000, A.D. 2024-Feb-10 00:00:00.0000, 1.557511694726149E+09, 6.703742798596479E+09, 5.971047293469572E+07,
2460357.500000000, A.D. 2024-Feb-17 00:00:00.0000, 1.554946718550516E+09, 6.704345816062881E+09, 6.008198217518568E+07,
2460364.500000000, A.D. 2024-Feb-24 00:00:00.0000, 1.552381456824247E+09, 6.704947780712545E+09, 6.045348439184237E+07,
2460371.500000000, A.D. 2024-Mar-02 00:00:00.0000, 1.549815908258818E+09, 6.705548692371969E+09, 6.082497967704487E+07,
2460378.500000000, A.D. 2024-Mar-09 00:00:00.0000, 1.547250071451075E+09, 6.706148549955838E+09, 6.119646807295513E+07,
2460385.500000000, A.D. 2024-Mar-16 00:00:00.0000, 1.544683945602951E+09, 6.706747351173806E+09, 6.156794948377514E+07,
2460392.500000000, A.D. 2024-Mar-23 00:00:00.0000, 1.542117531690761E+09, 6.707345093381303E+09, 6.193942363949203E+07,
2460399.500000000, A.D. 2024-Mar-30 00:00:00.0000, 1.539550831842932E+09, 6.707941775547571E+09, 6.231089031448269E+07,
2460406.500000000, A.D. 2024-Apr-06 00:00:00.0000, 1.536983847182184E+09, 6.708537397973331E+09, 6.268234950227547E+07,
2460413.500000000, A.D. 2024-Apr-13 00:00:00.0000, 1.534416577683316E+09, 6.709131960594466E+09, 6.305380128909636E+07,
2460420.500000000, A.D. 2024-Apr-20 00:00:00.0000, 1.531849023094434E+09, 6.709725462548449E+09, 6.342524573229980E+07,
2460427.500000000, A.D. 2024-Apr-27 00:00:00.0000, 1.529281183404605E+09, 6.710317902442041E+09, 6.379668283698750E+07,
2460434.500000000, A.D. 2024-May-04 00:00:00.0000, 1.526713058945860E+09, 6.710909278617045E+09, 6.416811256531715E+07,
2460441.500000000, A.D. 2024-May-11 00:00:00.0000, 1.524144650367876E+09, 6.711499589312432E+09, 6.453953484844923E+07,
2460448.500000000, A.D. 2024-May-18 00:00:00.0000, 1.521575958567327E+09, 6.712088832744761E+09, 6.491094959548855E+07,
2460455.500000000, A.D. 2024-May-25 00:00:00.0000, 1.519006984596629E+09, 6.712677007100095E+09, 6.528235669677258E+07,
2460462.500000000, A.D. 2024-Jun-01 00:00:00.0000, 1.516437729611915E+09, 6.713264110380269E+09, 6.565375601153231E+07,
2460469.500000000, A.D. 2024-Jun-08 00:00:00.0000, 1.513868195106614E+09, 6.713850140080929E+09, 6.602514731569624E+07,
2460476.500000000, A.D. 2024-Jun-15 00:00:00.0000, 1.511298383830139E+09, 6.714435093246650E+09, 6.639653021801281E+07,
2460483.500000000, A.D. 2024-Jun-22 00:00:00.0000, 1.508728300386482E+09, 6.715018968078536E+09, 6.676790423298216E+07,
2460490.500000000, A.D. 2024-Jun-29 00:00:00.0000, 1.506157949391073E+09, 6.715601765273703E+09, 6.713926905667877E+07,
2460497.500000000, A.D. 2024-Jul-06 00:00:00.0000, 1.503587333830922E+09, 6.716183486625633E+09, 6.751062460110903E+07,
2460504.500000000, A.D. 2024-Jul-13 00:00:00.0000, 1.501016455577273E+09, 6.716764133709655E+09, 6.788197083928156E+07,
2460511.500000000, A.D. 2024-Jul-20 00:00:00.0000, 1.498445316065138E+09, 6.717343707802227E+09, 6.825330773707962E+07,
2460518.500000000, A.D. 2024-Jul-27 00:00:00.0000, 1.495873916483703E+09, 6.717922210074671E+09, 6.862463525370216E+07,
2460525.500000000, A.D. 2024-Aug-03 00:00:00.0000, 1.493302257750541E+09, 6.718499641686476E+09, 6.899595335492611E+07,
2460532.500000000, A.D. 2024-Aug-10 00:00:00.0000, 1.490730340435404E+09, 6.719076003773877E+09, 6.936726202350473E+07,
2460539.500000000, A.D. 2024-Aug-17 00:00:00.0000, 1.488158164680927E+09, 6.719651297355796E+09, 6.973856126389742E+07,
2460546.500000000, A.D. 2024-Aug-24 00:00:00.0000, 1.485585730148082E+09, 6.720225523135188E+09, 7.010985109676409E+07,
2460553.500000000, A.D. 2024-Aug-31 00:00:00.0000, 1.483013036101995E+09, 6.720798681134697E+09, 7.048113152731085E+07,
2460560.500000000, A.D. 2024-Sep-07 00:00:00.0000, 1.480440082003628E+09, 6.721370770293362E+09, 7.085240246403837E+07,
2460567.500000000, A.D. 2024-Sep-14 00:00:00.0000, 1.477866868692579E+09, 6.721941789020531E+09, 7.122366366121101E+07,
2460574.500000000, A.D. 2024-Sep-21 00:00:00.0000, 1.475293398132166E+09, 6.722511737119814E+09, 7.159491490463114E+07,
2460581.500000000, A.D. 2024-Sep-28 00:00:00.0000, 1.472719671229292E+09, 6.723080615855570E+09, 7.196615622148895E+07,
2460588.500000000, A.D. 2024-Oct-05 00:00:00.0000, 1.470145687398807E+09, 6.723648426163797E+09, 7.233738777767515E+07,
2460595.500000000, A.D. 2024-Oct-12 00:00:00.0000, 1.467571445511730E+09, 6.724215167987575E+09, 7.270860973910236E+07,
2460602.500000000, A.D. 2024-Oct-19 00:00:00.0000, 1.464996944476427E+09, 6.724780840466461E+09, 7.307982223542929E+07,
2460609.500000000, A.D. 2024-Oct-26 00:00:00.0000, 1.462422183420388E+09, 6.725345442178595E+09, 7.345102536363745E+07,
2460616.500000000, A.D. 2024-Nov-02 00:00:00.0000, 1.459847161730052E+09, 6.725908971287372E+09, 7.382221919577169E+07,
2460623.500000000, A.D. 2024-Nov-09 00:00:00.0000, 1.457271879045401E+09, 6.726471425613672E+09, 7.419340378366756E+07,
2460630.500000000, A.D. 2024-Nov-16 00:00:00.0000, 1.454696335235399E+09, 6.727032802634183E+09, 7.456457915839100E+07,
2460637.500000000, A.D. 2024-Nov-23 00:00:00.0000, 1.452120530401338E+09, 6.727593099356240E+09, 7.493574531604004E+07,
2460644.500000000, A.D. 2024-Nov-30 00:00:00.0000, 1.449544465116524E+09, 6.728152312026734E+09, 7.530690216744089E+07,
2460651.500000000, A.D. 2024-Dec-07 00:00:00.0000, 1.446968141321862E+09, 6.728710436096005E+09, 7.567804944770288E+07,
2460658.500000000, A.D. 2024-Dec-14 00:00:00.0000, 1.444391563188797E+09, 6.729267467660793E+09, 7.604918674896145E+07,
2460665.500000000, A.D. 2024-Dec-21 00:00:00.0000, 1.441814735631118E+09, 6.729823405145688E+09, 7.642031378772163E+07,
2460672.500000000, A.D. 2024-Dec-28 00:00:00.0000, 1.439237662438158E+09, 6.730378248255780E+09, 7.679143048356104E+07,
2460679.500000000, A.D. 2025-Jan-04 00:00:00.0000, 1.436660346626675E+09, 6.730931996576782E+09, 7.716253680535793E+07,
2460686.500000000, A.D. 2025-Jan-11 00:00:00.0000, 1.434082791190241E+09, 6.731484649482495E+09, 7.753363268797159E+07,
2460693.500000000, A.D. 2025-Jan-18 00:00:00.0000, 1.431504999329325E+09, 6.732036206430846E+09, 7.790471802865314E+07,
2460700.500000000, A.D. 2025-Jan-25 00:00:00.0000, 1.428926974405694E+09, 6.732586667173966E+09, 7.827579270231771E+07,
2460707.500000000, A.D. 2025-Feb-01 00:00:00.0000, 1.426348719810761E+09, 6.733136031852188E+09, 7.864685657610655E+07,
2460714.500000000, A.D. 2025-Feb-08 00:00:00.0000, 1.423770238806416E+09, 6.733684300991597E+09, 7.901790951974201E+07,
2460721.500000000, A.D. 2025-Feb-15 00:00:00.0000, 1.421191534367231E+09, 6.734231475385147E+09, 7.938895140759182E+07,
2460728.500000000, A.D. 2025-Feb-22 00:00:00.0000, 1.418612609123317E+09, 6.734777555793392E+09, 7.975998209826374E+07,
2460735.500000000, A.D. 2025-Mar-01 00:00:00.0000, 1.416033465738936E+09, 6.735322542530285E+09, 8.013100136644793E+07,
$$EOE